[{"OBJECT_NAME":"STARLINK-1366","OBJECT_ID":"2020-025AQ","EPOCH":"2026-03-09T04:55:39.369792","MEAN_MOTION":15.75756697,"ECCENTRICITY":0.00085074,"INCLINATION":53.044,"RA_OF_ASC_NODE":40.9129,"ARG_OF_PERICENTER":56.1589,"MEAN_ANOMALY":304.0238,"EPHEMERIS_TYPE":0,"CLASSIFICATION_TYPE":"U","NORAD_CAT_ID":45569,"ELEMENT_SET_NO":999,"REV_AT_EPOCH":32596,"BSTAR":0.00070244107,"MEAN_MOTION_DOT":0.00111184,"MEAN_MOTION_DDOT":0},{"OBJECT_NAME":"STARLINK-36882","OBJECT_ID":"2026-038V","EPOCH":"2026-03-09T22:00:01.999584","MEAN_MOTION":15.89497833,"ECCENTRICITY":0.00012472,"INCLINATION":97.2688,"RA_OF_ASC_NODE":79.2388,"ARG_OF_PERICENTER":87.6092,"MEAN_ANOMALY":246.1602,"EPHEMERIS_TYPE":0,"CLASSIFICATION_TYPE":"U","NORAD_CAT_ID":67980,"ELEMENT_SET_NO":999,"REV_AT_EPOCH":323,"BSTAR":-0.0059171783,"MEAN_MOTION_DOT":-0.01702778,"MEAN_MOTION_DDOT":0.00078727847}]
